STARLINK-36604          
1 68142U 26049A   26085.25002315 -.00027571  00000+0 -14362-3 0  9993
2 68142  97.2837 105.2870 0000980 100.9955 254.3875 15.80821703  3291
STARLINK-36995          
1 68143U 26049B   26085.25002315 -.00036585  00000+0 -19103-3 0  9997
2 68143  97.2840 105.2885 0001127 103.8591 255.8062 15.80819129  3286
STARLINK-37020          
1 68144U 26049C   26085.25002315 -.00031933  00000+0 -16664-3 0  9999
2 68144  97.2839 105.2924 0000915 102.5459 265.6625 15.80809277  3289
STARLINK-36244          
1 68145U 26049D   26085.25002315 -.00001742  00000+0 -83619-5 0  9991
2 68145  97.2839 105.2946 0001096 121.6537 255.1036 15.80798234  3295
STARLINK-36980          
1 68146U 26049E   26085.25002315  .00047444  00000+0  24752-3 0  9990
2 68146  97.2839 105.2937 0001541 115.5159 256.9697 15.80776998  3287
STARLINK-37055          
1 68147U 26049F   26085.25002315 -.00001291  00000+0 -60031-5 0  9995
2 68147  97.2839 105.2902 0001322 113.7026 250.2272 15.80809529  3283
STARLINK-36981          
1 68148U 26049G   26085.25002315 -.00070033  00000+0 -36755-3 0  9990
2 68148  97.2840 105.2972 0001484 101.7183 279.3087 15.80831197  3285
STARLINK-36992          
1 68149U 26049H   26085.25002315  .00176271  00000+0  90652-3 0  9996
2 68149  97.2837 105.2988 0000921  73.7466 311.5690 15.80719236  3284
STARLINK-37060          
1 68150U 26049J   26085.25002315  .00121504  00000+0  62827-3 0  9990
2 68150  97.2837 105.3007 0001387  63.3291 326.2539 15.80746227  3282
STARLINK-37073          
1 68151U 26049K   26085.25002315  .00039591  00000+0  20675-3 0  9990
2 68151  97.2837 105.3030 0001145  94.7546 299.1063 15.80789248  3282
STARLINK-37049          
1 68152U 26049L   26085.25002315 -.00158166  00000+0 -83768-3 0  9995
2 68152  97.2837 105.3044 0001228  94.4181 303.6973 15.80876834  3281
STARLINK-37072          
1 68153U 26049M   26085.25002315  .00016729  00000+0  87994-4 0  9998
2 68153  97.2836 105.3060 0001277 100.7076 301.6820 15.80794959  3283
STARLINK-36241          
1 68154U 26049N   26085.25002315 -.01950883  00000+0 -11844-1 0  9998
2 68154  97.2836 105.3087 0001381  67.5837 343.3027 15.80549345  3294
STARLINK-37048          
1 68155U 26049P   26085.25002315  .00097851  00000+0  50725-3 0  9996
2 68155  97.2837 105.3128 0000936 114.7747 304.7218 15.80757269  3280
STARLINK-36313          
1 68156U 26049Q   26085.25002315  .00100670  00000+0  52142-3 0  9996
2 68156  97.2838 105.3106 0001029 114.7087 300.5139 15.80767412  3297
STARLINK-37064          
1 68157U 26049R   26085.25002315 -.00158412  00000+0 -83853-3 0  9999
2 68157  97.2837 105.3072 0000583  89.6047 317.0387 15.80891179  3284
