[{"OBJECT_NAME":"STARLINK-36604","OBJECT_ID":"2026-049A","EPOCH":"2026-03-26T06:00:02.000160","MEAN_MOTION":15.80821703,"ECCENTRICITY":9.809e-5,"INCLINATION":97.2837,"RA_OF_ASC_NODE":105.287,"ARG_OF_PERICENTER":100.9955,"MEAN_ANOMALY":254.3875,"EPHEMERIS_TYPE":0,"CLASSIFICATION_TYPE":"U","NORAD_CAT_ID":68142,"ELEMENT_SET_NO":999,"REV_AT_EPOCH":329,"BSTAR":-0.00014361843,"MEAN_MOTION_DOT":-0.00027571,"MEAN_MOTION_DDOT":0},{"OBJECT_NAME":"STARLINK-36995","OBJECT_ID":"2026-049B","EPOCH":"2026-03-26T06:00:02.000160","MEAN_MOTION":15.80819129,"ECCENTRICITY":0.0001127,"INCLINATION":97.284,"RA_OF_ASC_NODE":105.2885,"ARG_OF_PERICENTER":103.8591,"MEAN_ANOMALY":255.8062,"EPHEMERIS_TYPE":0,"CLASSIFICATION_TYPE":"U","NORAD_CAT_ID":68143,"ELEMENT_SET_NO":999,"REV_AT_EPOCH":328,"BSTAR":-0.00019103038,"MEAN_MOTION_DOT":-0.00036585,"MEAN_MOTION_DDOT":0},{"OBJECT_NAME":"STARLINK-37020","OBJECT_ID":"2026-049C","EPOCH":"2026-03-26T06:00:02.000160","MEAN_MOTION":15.80809277,"ECCENTRICITY":9.155e-5,"INCLINATION":97.2839,"RA_OF_ASC_NODE":105.2924,"ARG_OF_PERICENTER":102.5459,"MEAN_ANOMALY":265.6625,"EPHEMERIS_TYPE":0,"CLASSIFICATION_TYPE":"U","NORAD_CAT_ID":68144,"ELEMENT_SET_NO":999,"REV_AT_EPOCH":328,"BSTAR":-0.00016663619,"MEAN_MOTION_DOT":-0.00031933,"MEAN_MOTION_DDOT":0},{"OBJECT_NAME":"STARLINK-36244","OBJECT_ID":"2026-049D","EPOCH":"2026-03-26T06:00:02.000160","MEAN_MOTION":15.80798234,"ECCENTRICITY":0.00010962,"INCLINATION":97.2839,"RA_OF_ASC_NODE":105.2946,"ARG_OF_PERICENTER":121.6537,"MEAN_ANOMALY":255.1036,"EPHEMERIS_TYPE":0,"CLASSIFICATION_TYPE":"U","NORAD_CAT_ID":68145,"ELEMENT_SET_NO":999,"REV_AT_EPOCH":329,"BSTAR":-8.361932e-6,"MEAN_MOTION_DOT":-1.742e-5,"MEAN_MOTION_DDOT":0},{"OBJECT_NAME":"STARLINK-36980","OBJECT_ID":"2026-049E","EPOCH":"2026-03-26T06:00:02.000160","MEAN_MOTION":15.80776998,"ECCENTRICITY":0.00015411,"INCLINATION":97.2839,"RA_OF_ASC_NODE":105.2937,"ARG_OF_PERICENTER":115.5159,"MEAN_ANOMALY":256.9697,"EPHEMERIS_TYPE":0,"CLASSIFICATION_TYPE":"U","NORAD_CAT_ID":68146,"ELEMENT_SET_NO":999,"REV_AT_EPOCH":328,"BSTAR":0.00024751762,"MEAN_MOTION_DOT":0.00047444,"MEAN_MOTION_DDOT":0},{"OBJECT_NAME":"STARLINK-37055","OBJECT_ID":"2026-049F","EPOCH":"2026-03-26T06:00:02.000160","MEAN_MOTION":15.80809529,"ECCENTRICITY":0.0001322,"INCLINATION":97.2839,"RA_OF_ASC_NODE":105.2902,"ARG_OF_PERICENTER":113.7026,"MEAN_ANOMALY":250.2272,"EPHEMERIS_TYPE":0,"CLASSIFICATION_TYPE":"U","NORAD_CAT_ID":68147,"ELEMENT_SET_NO":999,"REV_AT_EPOCH":328,"BSTAR":-6.003084e-6,"MEAN_MOTION_DOT":-1.291e-5,"MEAN_MOTION_DDOT":0},{"OBJECT_NAME":"STARLINK-36981","OBJECT_ID":"2026-049G","EPOCH":"2026-03-26T06:00:02.000160","MEAN_MOTION":15.80831197,"ECCENTRICITY":0.00014848,"INCLINATION":97.284,"RA_OF_ASC_NODE":105.2972,"ARG_OF_PERICENTER":101.7183,"MEAN_ANOMALY":279.3087,"EPHEMERIS_TYPE":0,"CLASSIFICATION_TYPE":"U","NORAD_CAT_ID":68148,"ELEMENT_SET_NO":999,"REV_AT_EPOCH":328,"BSTAR":-0.0003675486,"MEAN_MOTION_DOT":-0.00070033,"MEAN_MOTION_DDOT":0},{"OBJECT_NAME":"STARLINK-36992","OBJECT_ID":"2026-049H","EPOCH":"2026-03-26T06:00:02.000160","MEAN_MOTION":15.80719236,"ECCENTRICITY":9.214e-5,"INCLINATION":97.2837,"RA_OF_ASC_NODE":105.2988,"ARG_OF_PERICENTER":73.7466,"MEAN_ANOMALY":311.569,"EPHEMERIS_TYPE":0,"CLASSIFICATION_TYPE":"U","NORAD_CAT_ID":68149,"ELEMENT_SET_NO":999,"REV_AT_EPOCH":328,"BSTAR":0.00090651977,"MEAN_MOTION_DOT":0.00176271,"MEAN_MOTION_DDOT":0},{"OBJECT_NAME":"STARLINK-37060","OBJECT_ID":"2026-049J","EPOCH":"2026-03-26T06:00:02.000160","MEAN_MOTION":15.80746227,"ECCENTRICITY":0.00013879,"INCLINATION":97.2837,"RA_OF_ASC_NODE":105.3007,"ARG_OF_PERICENTER":63.3291,"MEAN_ANOMALY":326.2539,"EPHEMERIS_TYPE":0,"CLASSIFICATION_TYPE":"U","NORAD_CAT_ID":68150,"ELEMENT_SET_NO":999,"REV_AT_EPOCH":328,"BSTAR":0.00062827366,"MEAN_MOTION_DOT":0.00121504,"MEAN_MOTION_DDOT":0},{"OBJECT_NAME":"STARLINK-37073","OBJECT_ID":"2026-049K","EPOCH":"2026-03-26T06:00:02.000160","MEAN_MOTION":15.80789248,"ECCENTRICITY":0.00011454,"INCLINATION":97.2837,"RA_OF_ASC_NODE":105.303,"ARG_OF_PERICENTER":94.7546,"MEAN_ANOMALY":299.1063,"EPHEMERIS_TYPE":0,"CLASSIFICATION_TYPE":"U","NORAD_CAT_ID":68151,"ELEMENT_SET_NO":999,"REV_AT_EPOCH":328,"BSTAR":0.00020674657,"MEAN_MOTION_DOT":0.00039591,"MEAN_MOTION_DDOT":0},{"OBJECT_NAME":"STARLINK-37049","OBJECT_ID":"2026-049L","EPOCH":"2026-03-26T06:00:02.000160","MEAN_MOTION":15.80876834,"ECCENTRICITY":0.00012288,"INCLINATION":97.2837,"RA_OF_ASC_NODE":105.3044,"ARG_OF_PERICENTER":94.4181,"MEAN_ANOMALY":303.6973,"EPHEMERIS_TYPE":0,"CLASSIFICATION_TYPE":"U","NORAD_CAT_ID":68152,"ELEMENT_SET_NO":999,"REV_AT_EPOCH":328,"BSTAR":-0.00083768462,"MEAN_MOTION_DOT":-0.00158166,"MEAN_MOTION_DDOT":0},{"OBJECT_NAME":"STARLINK-37072","OBJECT_ID":"2026-049M","EPOCH":"2026-03-26T06:00:02.000160","MEAN_MOTION":15.80794959,"ECCENTRICITY":0.0001277,"INCLINATION":97.2836,"RA_OF_ASC_NODE":105.306,"ARG_OF_PERICENTER":100.7076,"MEAN_ANOMALY":301.682,"EPHEMERIS_TYPE":0,"CLASSIFICATION_TYPE":"U","NORAD_CAT_ID":68153,"ELEMENT_SET_NO":999,"REV_AT_EPOCH":328,"BSTAR":8.7993573e-5,"MEAN_MOTION_DOT":0.00016729,"MEAN_MOTION_DDOT":0},{"OBJECT_NAME":"STARLINK-36241","OBJECT_ID":"2026-049N","EPOCH":"2026-03-26T06:00:02.000160","MEAN_MOTION":15.80549345,"ECCENTRICITY":0.00013812,"INCLINATION":97.2836,"RA_OF_ASC_NODE":105.3087,"ARG_OF_PERICENTER":67.5837,"MEAN_ANOMALY":343.3027,"EPHEMERIS_TYPE":0,"CLASSIFICATION_TYPE":"U","NORAD_CAT_ID":68154,"ELEMENT_SET_NO":999,"REV_AT_EPOCH":329,"BSTAR":-0.011844251,"MEAN_MOTION_DOT":-0.01950883,"MEAN_MOTION_DDOT":0},{"OBJECT_NAME":"STARLINK-37048","OBJECT_ID":"2026-049P","EPOCH":"2026-03-26T06:00:02.000160","MEAN_MOTION":15.80757269,"ECCENTRICITY":9.361e-5,"INCLINATION":97.2837,"RA_OF_ASC_NODE":105.3128,"ARG_OF_PERICENTER":114.7747,"MEAN_ANOMALY":304.7218,"EPHEMERIS_TYPE":0,"CLASSIFICATION_TYPE":"U","NORAD_CAT_ID":68155,"ELEMENT_SET_NO":999,"REV_AT_EPOCH":328,"BSTAR":0.00050724559,"MEAN_MOTION_DOT":0.00097851,"MEAN_MOTION_DDOT":0},{"OBJECT_NAME":"STARLINK-36313","OBJECT_ID":"2026-049Q","EPOCH":"2026-03-26T06:00:02.000160","MEAN_MOTION":15.80767412,"ECCENTRICITY":0.00010291,"INCLINATION":97.2838,"RA_OF_ASC_NODE":105.3106,"ARG_OF_PERICENTER":114.7087,"MEAN_ANOMALY":300.5139,"EPHEMERIS_TYPE":0,"CLASSIFICATION_TYPE":"U","NORAD_CAT_ID":68156,"ELEMENT_SET_NO":999,"REV_AT_EPOCH":329,"BSTAR":0.00052142334,"MEAN_MOTION_DOT":0.0010067,"MEAN_MOTION_DDOT":0},{"OBJECT_NAME":"STARLINK-37064","OBJECT_ID":"2026-049R","EPOCH":"2026-03-26T06:00:02.000160","MEAN_MOTION":15.80891179,"ECCENTRICITY":5.831e-5,"INCLINATION":97.2837,"RA_OF_ASC_NODE":105.3072,"ARG_OF_PERICENTER":89.6047,"MEAN_ANOMALY":317.0387,"EPHEMERIS_TYPE":0,"CLASSIFICATION_TYPE":"U","NORAD_CAT_ID":68157,"ELEMENT_SET_NO":999,"REV_AT_EPOCH":328,"BSTAR":-0.00083852974,"MEAN_MOTION_DOT":-0.00158412,"MEAN_MOTION_DDOT":0}]
